OBJECT_NAME,OBJECT_ID,EPOCH,MEAN_MOTION,ECCENTRICITY,INCLINATION,RA_OF_ASC_NODE,ARG_OF_PERICENTER,MEAN_ANOMALY,EPHEMERIS_TYPE,CLASSIFICATION_TYPE,NORAD_CAT_ID,ELEMENT_SET_NO,REV_AT_EPOCH,BSTAR,MEAN_MOTION_DOT,MEAN_MOTION_DDOT
COSMOS 2534 (758),2019-030A,2026-07-23T08:44:25.273824,2.13102412,.0013416,64.3713,191.3984,275.1477,257.7839,0,U,44299,999,5569,0,.91E-6,0
BEIDOU-3 IGSO-2 (C39),2019-035A,2026-07-23T18:40:37.456320,1.00289602,.0039093,55.2554,158.5416,213.1598,328.3926,0,U,44337,999,2603,0,-.115E-5,0
GPS BIII-2  (PRN 18),2019-056A,2026-07-23T18:49:59.998944,2.00570931,.006384,55.6171,329.6883,198.3517,335.0764,0,U,44506,999,5080,0,-.112E-5,0
BEIDOU-3 M24 (C46),2019-061A,2026-07-23T05:14:25.858176,1.86229305,.0008776,54.3973,181.5127,0.5938,359.3899,0,U,44542,999,4646,0,.73E-6,0
BEIDOU-3 M23 (C45),2019-061B,2026-07-23T08:25:02.368704,1.86227509,.0006029,54.3962,181.4765,342.0562,18.0390,0,U,44543,999,4647,0,.72E-6,0
EUTELSAT 5 WEST B (EGNOS/PRN 121),2019-067A,2026-07-23T21:07:38.548128,1.00272259,.0003314,0.0717,328.7411,151.6901,133.0730,0,U,44624,999,2480,0,-.37E-6,0
BEIDOU-3 M22 (C44),2019-078A,2026-07-20T21:51:42.681888,1.86227204,.00056032,53.9028,298.6402,50.2813,309.8054,0,U,44793,999,4527,0,-.98E-6,0
BEIDOU-3 M21 (C43),2019-078B,2026-07-22T15:52:44.795712,1.86227707,.00035105,53.8746,298.5385,49.7374,310.3307,0,U,44794,999,4531,0,-.94E-6,0
COSMOS 2544 (759),2019-088A,2026-07-23T03:53:54.124800,2.13102883,.0012036,65.5856,72.5304,253.5575,106.3785,0,U,44850,999,5148,0,-.46E-6,0
BEIDOU-3 M19 (C41),2019-090A,2026-07-23T03:59:47.536224,1.86231503,.00165277,56.5910,61.6011,296.6472,239.5314,0,U,44864,999,4490,0,-.73E-6,0
BEIDOU-3 M20 (C42),2019-090B,2026-07-21T23:09:05.641632,1.86231478,.00142312,56.5915,61.6754,312.1692,227.7948,0,U,44865,999,4486,0,-.79E-6,0
BEIDOU-3 G2 (C60),2020-017A,2026-07-23T20:29:51.730944,1.00272725,.0002131,2.9370,47.8539,58.9538,222.2741,0,U,45344,999,2362,0,-.138E-5,0
COSMOS 2545 (760),2020-018A,2026-07-23T08:34:35.505696,2.13102568,.0009943,64.3311,311.1469,230.3767,129.5577,0,U,45358,999,4943,0,-.88E-6,0
BEIDOU-3 G3 (C61),2020-040A,2026-07-23T20:21:15.128928,1.00272882,.0002259,2.5351,67.5036,318.3137,331.6269,0,U,45807,999,2243,0,-.351E-5,0
GPS BIII-3  (PRN 23),2020-041A,2026-07-22T20:59:52.803744,2.00558039,.00656102,56.6939,27.5596,204.6648,328.6198,0,U,45854,999,4475,0,-.79E-6,0
GALAXY 30 (WAAS/PRN 135),2020-056C,2026-07-23T12:23:27.570912,1.00270548,.0002323,0.0142,37.0549,82.3407,242.7034,0,U,46114,999,2165,0,.42E-6,0
COSMOS 2547 (705K),2020-075A,2026-07-23T13:07:54.776064,2.13100077,.0009358,64.6022,191.2621,239.5947,120.3197,0,U,46805,999,4468,0,.9E-6,0
GPS BIII-4  (PRN 14),2020-078A,2026-07-23T18:49:59.998944,2.00565296,.0074757,53.9764,209.2941,207.9705,239.8518,0,U,46826,999,4224,0,.87E-6,0
GPS BIII-5  (PRN 11),2021-054A,2026-07-23T11:30:57.548736,2.00566985,.0026705,55.1548,331.0007,228.6221,185.4073,0,U,48859,999,3748,0,-.113E-5,0
QZS-1R (QZSS/PRN 196),2021-096A,2026-07-23T13:00:38.746368,1.00242971,.0755622,37.5340,79.0424,272.3546,275.8173,0,U,49336,999,1737,0,-.328E-5,0
GSAT0223 (GALILEO 27),2021-116A,2026-07-23T08:33:13.487904,1.70476582,.0002573,57.1472,340.6987,195.8293,161.8890,0,U,49809,999,2879,0,-.106E-5,0
GSAT0224 (GALILEO 28),2021-116B,2026-07-23T04:20:05.008992,1.70476626,.0002038,57.1469,340.7020,183.2732,179.1905,0,U,49810,999,2882,0,-.106E-5,0
COSMOS 2557 (706K),2022-075A,2026-07-23T05:48:25.710336,2.13102385,.0011103,64.2748,313.2153,270.4489,89.4436,0,U,52984,999,3148,0,-.9E-6,0
COSMOS 2559 (707K),2022-130A,2026-07-21T15:41:37.131936,2.13101809,.0013183,64.2486,313.3533,181.8332,178.1821,0,U,54031,999,2942,0,-.9E-6,0
COSMOS 2564 (761),2022-161A,2026-07-23T08:58:37.157952,2.13102088,.001215,64.7442,191.5105,224.6330,135.2765,0,U,54377,999,2840,0,.92E-6,0
GPS BIII-6  (PRN 28),2023-009A,2026-07-22T20:35:38.715936,2.00569256,.0006263,55.1243,147.1168,321.9041,41.9521,0,U,55268,999,2596,0,.7E-7,0
BEIDOU-3 G4 (C62),2023-066A,2026-07-23T20:29:36.826944,1.00270272,.000519,0.4541,341.3855,182.2775,225.3731,0,U,56564,999,1176,0,-.275E-5,0
NVS-01 (IRNSS-1J),2023-076A,2026-07-23T20:26:37.114080,1.00275034,.0002914,2.0821,242.6774,16.6899,118.3867,0,U,56759,999,1148,0,-.329E-5,0
COSMOS 2569 (703K),2023-114A,2026-07-22T22:00:32.884992,2.13103906,.00094297,65.3229,71.4159,295.2211,64.7491,0,U,57517,999,2302,0,-.48E-6,0
BEIDOU-3 M28 (C50),2023-207A,2026-07-23T06:36:42.976224,1.86229831,.0002153,55.7853,61.0858,10.4773,349.5911,0,U,58654,999,1751,0,-.74E-6,0
BEIDOU-3 M26 (C48),2023-207B,2026-07-23T01:45:06.336864,1.86229895,.0001632,55.7875,61.0793,323.8282,36.2241,0,U,58655,999,1749,0,-.76E-6,0
